CCSDS_OMM_VERS = 2.0
CREATION_DATE  = 
ORIGINATOR     = 

OBJECT_NAME    = COSMOS 1933
OBJECT_ID      = 1988-020A
CENTER_NAME    = EARTH
REF_FRAME      = TEME
TIME_SYSTEM    = UTC
MEAN_ELEMENT_THEORY = SGP/SGP4

EPOCH          = 2026-01-25T05:05:26.757600
MEAN_MOTION    = 15.17578693
ECCENTRICITY   = .0004613
INCLINATION    = 82.5140
RA_OF_ASC_NODE = 293.9186
ARG_OF_PERICENTER = 15.8096
MEAN_ANOMALY   = 344.3281

EPHEMERIS_TYPE = 0
CLASSIFICATION_TYPE = U
NORAD_CAT_ID   = 18958
ELEMENT_SET_NO = 999
REV_AT_EPOCH   = 4363
BSTAR          = .36392E-3
MEAN_MOTION_DOT = .734E-4
MEAN_MOTION_DDOT = 0

CCSDS_OMM_VERS = 2.0
CREATION_DATE  = 
ORIGINATOR     = 

OBJECT_NAME    = SL-3 R/B
OBJECT_ID      = 1988-032B
CENTER_NAME    = EARTH
REF_FRAME      = TEME
TIME_SYSTEM    = UTC
MEAN_ELEMENT_THEORY = SGP/SGP4

EPOCH          = 2026-01-25T14:27:16.947936
MEAN_MOTION    = 15.19306323
ECCENTRICITY   = .0027315
INCLINATION    = 97.5134
RA_OF_ASC_NODE = 9.0473
ARG_OF_PERICENTER = 28.1362
MEAN_ANOMALY   = 332.1342

EPHEMERIS_TYPE = 0
CLASSIFICATION_TYPE = U
NORAD_CAT_ID   = 19046
ELEMENT_SET_NO = 999
REV_AT_EPOCH   = 4556
BSTAR          = .41900231E-3
MEAN_MOTION_DOT = .8866E-4
MEAN_MOTION_DDOT = 0

CCSDS_OMM_VERS = 2.0
CREATION_DATE  = 
ORIGINATOR     = 

OBJECT_NAME    = SL-16 R/B
OBJECT_ID      = 1988-039B
CENTER_NAME    = EARTH
REF_FRAME      = TEME
TIME_SYSTEM    = UTC
MEAN_ELEMENT_THEORY = SGP/SGP4

EPOCH          = 2026-01-25T12:06:50.727456
MEAN_MOTION    = 14.19608794
ECCENTRICITY   = .00202224
INCLINATION    = 71.0146
RA_OF_ASC_NODE = 159.8619
ARG_OF_PERICENTER = 41.7353
MEAN_ANOMALY   = 318.5311

EPHEMERIS_TYPE = 0
CLASSIFICATION_TYPE = U
NORAD_CAT_ID   = 19120
ELEMENT_SET_NO = 999
REV_AT_EPOCH   = 95225
BSTAR          = .8166611E-5
MEAN_MOTION_DOT = -.31E-6
MEAN_MOTION_DDOT = 0

CCSDS_OMM_VERS = 2.0
CREATION_DATE  = 
ORIGINATOR     = 

OBJECT_NAME    = COSMOS 1953
OBJECT_ID      = 1988-050A
CENTER_NAME    = EARTH
REF_FRAME      = TEME
TIME_SYSTEM    = UTC
MEAN_ELEMENT_THEORY = SGP/SGP4

EPOCH          = 2026-01-25T12:53:39.141312
MEAN_MOTION    = 15.27597717
ECCENTRICITY   = .0010426
INCLINATION    = 82.5077
RA_OF_ASC_NODE = 201.6120
ARG_OF_PERICENTER = 277.6589
MEAN_ANOMALY   = 82.3466

EPHEMERIS_TYPE = 0
CLASSIFICATION_TYPE = U
NORAD_CAT_ID   = 19210
ELEMENT_SET_NO = 999
REV_AT_EPOCH   = 3119
BSTAR          = .4314513E-3
MEAN_MOTION_DOT = .11693E-3
MEAN_MOTION_DDOT = 0

CCSDS_OMM_VERS = 2.0
CREATION_DATE  = 
ORIGINATOR     = 

OBJECT_NAME    = SL-8 R/B
OBJECT_ID      = 1988-053B
CENTER_NAME    = EARTH
REF_FRAME      = TEME
TIME_SYSTEM    = UTC
MEAN_ELEMENT_THEORY = SGP/SGP4

EPOCH          = 2026-01-25T13:12:55.669248
MEAN_MOTION    = 14.38887901
ECCENTRICITY   = .00197675
INCLINATION    = 74.0460
RA_OF_ASC_NODE = 191.9734
ARG_OF_PERICENTER = 20.4630
MEAN_ANOMALY   = 40.3662

EPHEMERIS_TYPE = 0
CLASSIFICATION_TYPE = U
NORAD_CAT_ID   = 19257
ELEMENT_SET_NO = 999
REV_AT_EPOCH   = 97039
BSTAR          = .14136254E-3
MEAN_MOTION_DOT = .41E-5
MEAN_MOTION_DDOT = 0

CCSDS_OMM_VERS = 2.0
CREATION_DATE  = 
ORIGINATOR     = 

OBJECT_NAME    = COSMOS 1975
OBJECT_ID      = 1988-093A
CENTER_NAME    = EARTH
REF_FRAME      = TEME
TIME_SYSTEM    = UTC
MEAN_ELEMENT_THEORY = SGP/SGP4

EPOCH          = 2026-01-25T15:00:27.136512
MEAN_MOTION    = 15.27236580
ECCENTRICITY   = .00108727
INCLINATION    = 82.5216
RA_OF_ASC_NODE = 160.8725
ARG_OF_PERICENTER = 326.7163
MEAN_ANOMALY   = 33.3391

EPHEMERIS_TYPE = 0
CLASSIFICATION_TYPE = U
NORAD_CAT_ID   = 19573
ELEMENT_SET_NO = 999
REV_AT_EPOCH   = 1283
BSTAR          = .46081033E-3
MEAN_MOTION_DOT = .12353E-3
MEAN_MOTION_DDOT = 0

CCSDS_OMM_VERS = 2.0
CREATION_DATE  = 
ORIGINATOR     = 

OBJECT_NAME    = SL-14 R/B
OBJECT_ID      = 1988-093B
CENTER_NAME    = EARTH
REF_FRAME      = TEME
TIME_SYSTEM    = UTC
MEAN_ELEMENT_THEORY = SGP/SGP4

EPOCH          = 2026-01-25T15:25:46.082208
MEAN_MOTION    = 14.85607336
ECCENTRICITY   = .0020798
INCLINATION    = 82.5294
RA_OF_ASC_NODE = 82.4647
ARG_OF_PERICENTER = 176.3707
MEAN_ANOMALY   = 347.8981

EPHEMERIS_TYPE = 0
CLASSIFICATION_TYPE = U
NORAD_CAT_ID   = 19574
ELEMENT_SET_NO = 999
REV_AT_EPOCH   = 99464
BSTAR          = .85273889E-4
MEAN_MOTION_DOT = .765E-5
MEAN_MOTION_DDOT = 0

CCSDS_OMM_VERS = 2.0
CREATION_DATE  = 
ORIGINATOR     = 

OBJECT_NAME    = SL-16 R/B
OBJECT_ID      = 1988-102B
CENTER_NAME    = EARTH
REF_FRAME      = TEME
TIME_SYSTEM    = UTC
MEAN_ELEMENT_THEORY = SGP/SGP4

EPOCH          = 2026-01-25T14:32:05.894592
MEAN_MOTION    = 14.16148164
ECCENTRICITY   = .0011943
INCLINATION    = 70.9975
RA_OF_ASC_NODE = 242.1474
ARG_OF_PERICENTER = 73.6315
MEAN_ANOMALY   = 286.6120

EPHEMERIS_TYPE = 0
CLASSIFICATION_TYPE = U
NORAD_CAT_ID   = 19650
ELEMENT_SET_NO = 999
REV_AT_EPOCH   = 92079
BSTAR          = -.28822718E-4
MEAN_MOTION_DOT = -.105E-5
MEAN_MOTION_DDOT = 0

CCSDS_OMM_VERS = 2.0
CREATION_DATE  = 
ORIGINATOR     = 

OBJECT_NAME    = INTERCOSMOS 24
OBJECT_ID      = 1989-080A
CENTER_NAME    = EARTH
REF_FRAME      = TEME
TIME_SYSTEM    = UTC
MEAN_ELEMENT_THEORY = SGP/SGP4

EPOCH          = 2026-01-25T08:31:56.237664
MEAN_MOTION    = 12.59500502
ECCENTRICITY   = .11887714
INCLINATION    = 82.6079
RA_OF_ASC_NODE = 132.6011
ARG_OF_PERICENTER = 33.4031
MEAN_ANOMALY   = 333.6610

EPHEMERIS_TYPE = 0
CLASSIFICATION_TYPE = U
NORAD_CAT_ID   = 20261
ELEMENT_SET_NO = 999
REV_AT_EPOCH   = 66134
BSTAR          = .20721038E-3
MEAN_MOTION_DOT = .726E-5
MEAN_MOTION_DDOT = 0

CCSDS_OMM_VERS = 2.0
CREATION_DATE  = 
ORIGINATOR     = 

OBJECT_NAME    = SL-14 R/B
OBJECT_ID      = 1989-080C
CENTER_NAME    = EARTH
REF_FRAME      = TEME
TIME_SYSTEM    = UTC
MEAN_ELEMENT_THEORY = SGP/SGP4

EPOCH          = 2026-01-25T12:10:35.803776
MEAN_MOTION    = 12.50445891
ECCENTRICITY   = .12295226
INCLINATION    = 82.5923
RA_OF_ASC_NODE = 200.9123
ARG_OF_PERICENTER = 283.5233
MEAN_ANOMALY   = 63.2040

EPHEMERIS_TYPE = 0
CLASSIFICATION_TYPE = U
NORAD_CAT_ID   = 20262
ELEMENT_SET_NO = 999
REV_AT_EPOCH   = 65475
BSTAR          = .1223905E-3
MEAN_MOTION_DOT = .403E-5
MEAN_MOTION_DDOT = 0

CCSDS_OMM_VERS = 2.0
CREATION_DATE  = 
ORIGINATOR     = 

OBJECT_NAME    = DELTA 1 R/B
OBJECT_ID      = 1989-089B
CENTER_NAME    = EARTH
REF_FRAME      = TEME
TIME_SYSTEM    = UTC
MEAN_ELEMENT_THEORY = SGP/SGP4

EPOCH          = 2026-01-25T13:53:57.150816
MEAN_MOTION    = 14.50621386
ECCENTRICITY   = .0067567
INCLINATION    = 97.0732
RA_OF_ASC_NODE = 239.8654
ARG_OF_PERICENTER = 258.7832
MEAN_ANOMALY   = 100.5766

EPHEMERIS_TYPE = 0
CLASSIFICATION_TYPE = U
NORAD_CAT_ID   = 20323
ELEMENT_SET_NO = 999
REV_AT_EPOCH   = 88948
BSTAR          = .19104424E-3
MEAN_MOTION_DOT = .736E-5
MEAN_MOTION_DDOT = 0

CCSDS_OMM_VERS = 2.0
CREATION_DATE  = 
ORIGINATOR     = 

OBJECT_NAME    = ARIANE 40 R/B
OBJECT_ID      = 1990-005H
CENTER_NAME    = EARTH
REF_FRAME      = TEME
TIME_SYSTEM    = UTC
MEAN_ELEMENT_THEORY = SGP/SGP4

EPOCH          = 2026-01-25T14:09:06.112512
MEAN_MOTION    = 14.39838676
ECCENTRICITY   = .0009532
INCLINATION    = 98.3175
RA_OF_ASC_NODE = 87.5152
ARG_OF_PERICENTER = 340.9636
MEAN_ANOMALY   = 19.1195

EPHEMERIS_TYPE = 0
CLASSIFICATION_TYPE = U
NORAD_CAT_ID   = 20443
ELEMENT_SET_NO = 999
REV_AT_EPOCH   = 88660
BSTAR          = .19056386E-3
MEAN_MOTION_DOT = .556E-5
MEAN_MOTION_DDOT = 0

