COSMOS 1933             
1 18958U 88020A   26025.21211525  .00007340  00000+0  36392-3 0  9992
2 18958  82.5140 293.9186 0004613  15.8096 344.3281 15.17578693 43637
SL-3 R/B                
1 19046U 88032B   26025.60227949  .00008866  00000+0  41900-3 0  9999
2 19046  97.5134   9.0473 0027315  28.1362 332.1342 15.19306323 45565
SL-16 R/B               
1 19120U 88039B   26025.50475379 -.00000031  00000+0  81666-5 0  9992
2 19120  71.0146 159.8619 0020222  41.7353 318.5311 14.19608794952258
COSMOS 1953             
1 19210U 88050A   26025.53725858  .00011693  00000+0  43145-3 0  9991
2 19210  82.5077 201.6120 0010426 277.6589  82.3466 15.27597717 31197
SL-8 R/B                
1 19257U 88053B   26025.55064432  .00000410  00000+0  14136-3 0  9994
2 19257  74.0460 191.9734 0019767  20.4630  40.3662 14.38887901970394
COSMOS 1975             
1 19573U 88093A   26025.62531408  .00012353  00000+0  46081-3 0  9992
2 19573  82.5216 160.8725 0010872 326.7163  33.3391 15.27236580 12831
SL-14 R/B               
1 19574U 88093B   26025.64289447  .00000765  00000+0  85274-4 0  9990
2 19574  82.5294  82.4647 0020798 176.3707 347.8981 14.85607336994641
SL-16 R/B               
1 19650U 88102B   26025.60562378 -.00000105  00000+0 -28823-4 0  9996
2 19650  70.9975 242.1474 0011943  73.6315 286.6120 14.16148164920795
INTERCOSMOS 24          
1 20261U 89080A   26025.35551201  .00000726  00000+0  20721-3 0  9992
2 20261  82.6079 132.6011 1188771  33.4031 333.6610 12.59500502661347
SL-14 R/B               
1 20262U 89080C   26025.50735884  .00000403  00000+0  12239-3 0  9998
2 20262  82.5923 200.9123 1229522 283.5233  63.2040 12.50445891654750
DELTA 1 R/B             
1 20323U 89089B   26025.57913369  .00000736  00000+0  19104-3 0  9995
2 20323  97.0732 239.8654 0067567 258.7832 100.5766 14.50621386889481
ARIANE 40 R/B           
1 20443U 90005H   26025.58965408  .00000556  00000+0  19056-3 0  9996
2 20443  98.3175  87.5152 0009532 340.9636  19.1195 14.39838676886605
